{
    "links": {
        "self": "http://www.neowsapp.com/rest/v1/neo/3775209?api_key=iIulBulltgU6a56xZRHN4H3l9WmuAYTsLGpBGhQ2"
    },
    "id": "3775209",
    "neo_reference_id": "3775209",
    "name": "(2017 LF1)",
    "designation": "2017 LF1",
    "nasa_jpl_url": "http://ssd.jpl.nasa.gov/sbdb.cgi?sstr=3775209",
    "absolute_magnitude_h": 24.8,
    "estimated_diameter": {
        "kilometers": {
            "estimated_diameter_min": 0.0291443905,
            "estimated_diameter_max": 0.0651688382
        },
        "meters": {
            "estimated_diameter_min": 29.1443904535,
            "estimated_diameter_max": 65.1688382168
        },
        "miles": {
            "estimated_diameter_min": 0.018109479,
            "estimated_diameter_max": 0.0404940262
        },
        "feet": {
            "estimated_diameter_min": 95.6180819754,
            "estimated_diameter_max": 213.8085311752
        }
    },
    "is_potentially_hazardous_asteroid": false,
    "close_approach_data": [
        {
            "close_approach_date": "2015-07-02",
            "close_approach_date_full": "2015-Jul-02 01:59",
            "epoch_date_close_approach": 1435802340000,
            "relative_velocity": {
                "kilometers_per_second": "22.6668333598",
                "kilometers_per_hour": "81600.6000954197",
                "miles_per_hour": "50703.4395426234"
            },
            "miss_distance": {
                "astronomical": "0.3915513634",
                "lunar": "152.3134803626",
                "kilometers": "58575249.960235958",
                "miles": "36396972.5752459004"
            },
            "orbiting_body": "Earth"
        },
        {
            "close_approach_date": "2017-06-09",
            "close_approach_date_full": "2017-Jun-09 15:17",
            "epoch_date_close_approach": 1497021420000,
            "relative_velocity": {
                "kilometers_per_second": "12.2585021144",
                "kilometers_per_hour": "44130.6076120031",
                "miles_per_hour": "27421.0433798027"
            },
            "miss_distance": {
                "astronomical": "0.0353756734",
                "lunar": "13.7611369526",
                "kilometers": "5292125.390455658",
                "miles": "3288374.2336897604"
            },
            "orbiting_body": "Earth"
        },
        {
            "close_approach_date": "2023-01-11",
            "close_approach_date_full": "2023-Jan-11 00:38",
            "epoch_date_close_approach": 1673397480000,
            "relative_velocity": {
                "kilometers_per_second": "23.5463661423",
                "kilometers_per_hour": "84766.9181122908",
                "miles_per_hour": "52670.8664237176"
            },
            "miss_distance": {
                "astronomical": "0.410643961",
                "lunar": "159.740500829",
                "kilometers": "61431461.89396307",
                "miles": "38171740.373787566"
            },
            "orbiting_body": "Earth"
        },
        {
            "close_approach_date": "2058-01-13",
            "close_approach_date_full": "2058-Jan-13 02:57",
            "epoch_date_close_approach": 2778116220000,
            "relative_velocity": {
                "kilometers_per_second": "22.3922298678",
                "kilometers_per_hour": "80612.0275240447",
                "miles_per_hour": "50089.1789912599"
            },
            "miss_distance": {
                "astronomical": "0.3729554702",
                "lunar": "145.0796779078",
                "kilometers": "55793343.946768474",
                "miles": "34668376.3345499812"
            },
            "orbiting_body": "Earth"
        }
    ],
    "orbital_data": {
        "orbit_id": "5",
        "orbit_determination_date": "2017-06-26 06:20:06",
        "first_observation_date": "2017-06-15",
        "last_observation_date": "2017-06-26",
        "data_arc_in_days": 11,
        "observations_used": 50,
        "orbit_uncertainty": "8",
        "minimum_orbit_intersection": ".00388333",
        "jupiter_tisserand_invariant": "4.310",
        "epoch_osculation": "2457921.5",
        "eccentricity": ".4586053857688648",
        "semi_major_axis": "1.558856474975533",
        "inclination": "2.458387540765752",
        "ascending_node_longitude": "250.2905089810735",
        "orbital_period": "710.898542307492",
        "perihelion_distance": ".8439564999110862",
        "perihelion_argument": "302.9136339085692",
        "aphelion_distance": "2.273756450039981",
        "perihelion_time": "2457866.702136775994",
        "mean_anomaly": "27.74971333688478",
        "mean_motion": ".5064013759705891",
        "equinox": "J2000",
        "orbit_class": {
            "orbit_class_type": "APO",
            "orbit_class_description": "Near-Earth asteroid orbits which cross the Earth’s orbit similar to that of 1862 Apollo",
            "orbit_class_range": "a (semi-major axis) > 1.0 AU; q (perihelion) < 1.017 AU"
        }
    },
    "is_sentry_object": false
}